     2              NAVIGATION DATA                         RINEX VERSION / TYPE
CCRINEXN V1.6.0 UX  CDDIS               16-MAY-16 15:33     PGM / RUN BY / DATE 
IGS BROADCAST EPHEMERIS FILE                                COMMENT             
    0.1118D-07  0.2235D-07 -0.5960D-07 -0.1192D-06          ION ALPHA           
    0.9830D+05  0.1311D+06 -0.1311D+06 -0.5898D+06          ION BETA            
    0.186264514923D-08 0.532907051820D-14   233472     1897 DELTA-UTC: A0,A1,T,W
    17                                                      LEAP SECONDS        
                                                            END OF HEADER       
14 16  5 15 22  0  0.0-0.140219926834D-04-0.204636307899D-11 0.000000000000D+00
    0.360000000000D+02 0.597812500000D+02 0.434018078595D-08 0.250185990586D+01
    0.313110649586D-05 0.860939407721D-02 0.663846731186D-05 0.515401214409D+04
    0.792000000000D+05 0.124797224999D-06 0.131808760947D+00-0.931322574615D-07
    0.964408906588D+00 0.252250000000D+03-0.196482897682D+01-0.791854412486D-08
    0.288583449230D-09 0.000000000000D+00 0.189700000000D+04 0.000000000000D+00
    0.200000000000D+01 0.000000000000D+00-0.931322574616D-08 0.360000000000D+02
    0.720000000000D+05 0.400000000000D+01 0.000000000000D+00 0.000000000000D+00
15 16  5 15 22  0  0.0-0.311036128551D-03-0.170530256582D-11 0.000000000000D+00
    0.670000000000D+02 0.630625000000D+02 0.518593030053D-08 0.184828252128D+01
    0.327266752720D-05 0.812091119587D-02 0.716559588909D-05 0.515359255219D+04
    0.792000000000D+05-0.147148966789D-06-0.397173773596D-02 0.782310962677D-07
    0.931242826025D+00 0.226375000000D+03 0.481756262008D+00-0.847070998193D-08
    0.179293182566D-09 0.100000000000D+01 0.189700000000D+04 0.000000000000D+00
    0.200000000000D+01 0.000000000000D+00-0.107102096081D-07 0.670000000000D+02
    0.720780000000D+05 0.400000000000D+01 0.000000000000D+00 0.000000000000D+00
16 16  5 15 22  0  0.0-0.173710286617D-04 0.261479726760D-11 0.000000000000D+00
    0.540000000000D+02-0.156250000000D+01 0.375229915546D-08-0.273363284936D+01
   -0.253319740295D-06 0.876089197118D-02 0.103190541267D-04 0.515376460838D+04
    0.792000000000D+05-0.106170773506D-06 0.222137971494D+01-0.162050127983D-06
    0.990814206337D+00 0.198718750000D+03 0.379310260869D+00-0.757388691136D-08
    0.435732435719D-10 0.000000000000D+00 0.189700000000D+04 0.000000000000D+00
    0.200000000000D+01 0.000000000000D+00-0.107102096081D-07 0.540000000000D+02
    0.720000000000D+05 0.400000000000D+01 0.000000000000D+00 0.000000000000D+00
17 16  5 15 22  0  0.0-0.203718431294D-03-0.113686837722D-12 0.000000000000D+00
    0.670000000000D+02 0.218437500000D+02 0.434553815196D-08 0.266663123205D+01
    0.106915831566D-05 0.109611244407D-01 0.644102692604D-05 0.515368736839D+04
    0.792000000000D+05 0.745058059692D-08-0.304046292908D+01-0.195577740669D-06
    0.976550964262D+00 0.258125000000D+03-0.192822196225D+01-0.783389774186D-08
    0.198222542479D-09 0.100000000000D+01 0.189700000000D+04 0.000000000000D+00
    0.200000000000D+01 0.000000000000D+00-0.107102096081D-07 0.670000000000D+02
    0.720180000000D+05 0.400000000000D+01 0.000000000000D+00 0.000000000000D+00
18 16  5 15 22  0  0.0 0.515966676176D-03 0.420641299570D-11 0.000000000000D+00
    0.270000000000D+02-0.228125000000D+01 0.501842332319D-08-0.206018129551D+01
   -0.204890966415D-06 0.171493297676D-01 0.976584851742D-05 0.515368400192D+04
    0.792000000000D+05 0.320374965668D-06-0.102357747826D+01-0.894069671631D-07
    0.924866090465D+00 0.170875000000D+03-0.188664695103D+01-0.794818821680D-08
   -0.131434046184D-09 0.000000000000D+00 0.189700000000D+04 0.000000000000D+00
    0.200000000000D+01 0.000000000000D+00-0.121071934700D-07 0.270000000000D+02
    0.720000000000D+05 0.400000000000D+01 0.000000000000D+00 0.000000000000D+00
19 16  5 15 22  0  0.0-0.525689218193D-03 0.000000000000D+00 0.000000000000D+00
    0.370000000000D+02 0.244062500000D+02 0.454876090272D-08-0.486034400621D+00
    0.141188502312D-05 0.107856345130D-01 0.643916428089D-05 0.515361353874D+04
    0.792000000000D+05-0.130385160446D-07-0.299167579611D+01 0.167638063431D-06
    0.973639218930D+00 0.262593750000D+03 0.764098782753D+00-0.822391398760D-08
    0.229652423088D-09 0.100000000000D+01 0.189700000000D+04 0.000000000000D+00
    0.200000000000D+01 0.000000000000D+00-0.149011611938D-07 0.370000000000D+02
    0.742320000000D+05 0.400000000000D+01 0.000000000000D+00 0.000000000000D+00
20 16  5 15 22  0  0.0 0.412430614233D-03 0.238742359215D-11 0.000000000000D+00
    0.530000000000D+02-0.214687500000D+02 0.513057085173D-08 0.187769789493D+01
   -0.131875276566D-05 0.459645816591D-02 0.958703458309D-05 0.515373937225D+04
    0.792000000000D+05 0.540167093277D-07-0.107542457650D+01-0.102445483208D-06
    0.926096186595D+00 0.177750000000D+03 0.136586212518D+01-0.829248827257D-08
   -0.213223167315D-09 0.100000000000D+01 0.189700000000D+04 0.000000000000D+00
    0.200000000000D+01 0.000000000000D+00-0.838190317154D-08 0.530000000000D+02
    0.720180000000D+05 0.400000000000D+01 0.000000000000D+00 0.000000000000D+00
21 16  5 15 22  0  0.0-0.522765330970D-03-0.125055521494D-11 0.000000000000D+00
    0.410000000000D+02-0.370937500000D+02 0.538236705433D-08-0.117952123054D+01
   -0.166893005371D-05 0.233717232477D-01 0.575184822082D-05 0.515361363220D+04
    0.792000000000D+05-0.111758708954D-06-0.206595631238D+01 0.594183802605D-06
    0.936034520566D+00 0.254250000000D+03-0.179126607180D+01-0.870286250916D-08
   -0.281083136812D-09 0.000000000000D+00 0.189700000000D+04 0.000000000000D+00
    0.200000000000D+01 0.000000000000D+00-0.102445483208D-07 0.410000000000D+02
    0.720000000000D+05 0.400000000000D+01 0.000000000000D+00 0.000000000000D+00
22 16  5 15 22  0  0.0 0.341658480465D-03-0.818545231596D-11 0.000000000000D+00
    0.560000000000D+02-0.189062500000D+02 0.517664419944D-08 0.225541607376D+01
   -0.117160379887D-05 0.766619003843D-02 0.107642263174D-04 0.515382953835D+04
    0.792000000000D+05 0.819563865662D-07-0.102290914560D+01-0.108033418655D-06
    0.922757814853D+00 0.147531250000D+03-0.192297872342D+01-0.821534220198D-08
   -0.181793286706D-09 0.100000000000D+01 0.189700000000D+04 0.000000000000D+00
    0.200000000000D+01 0.000000000000D+00-0.176951289177D-07 0.560000000000D+02
    0.736500000000D+05 0.400000000000D+01 0.000000000000D+00 0.000000000000D+00
23 16  5 15 22  0  0.0-0.173926819116D-03-0.170530256582D-11 0.000000000000D+00
    0.600000000000D+02 0.666562500000D+02 0.487127433670D-08 0.136094761282D+01
    0.356882810593D-05 0.108824392082D-01 0.731088221073D-05 0.515367942047D+04
    0.792000000000D+05-0.134110450745D-06 0.536284614064D-01 0.558793544769D-07
    0.946457188678D+00 0.232781250000D+03-0.257956942519D+01-0.835499087605D-08
    0.116790579082D-09 0.000000000000D+00 0.189700000000D+04 0.000000000000D+00
    0.200000000000D+01 0.000000000000D+00-0.200234353542D-07 0.600000000000D+02
    0.786000000000D+05 0.400000000000D+01 0.000000000000D+00 0.000000000000D+00
24 16  5 15 22  0  0.0-0.170986168087D-04-0.568434188608D-12 0.000000000000D+00
    0.760000000000D+02-0.116562500000D+02 0.498377902297D-08 0.770704188500D+00
   -0.756233930588D-06 0.440934789367D-02 0.491552054882D-05 0.515361943245D+04
    0.792000000000D+05-0.558793544769D-08 0.107931400169D+01 0.428408384323D-07
    0.949499617945D+00 0.281062500000D+03 0.419801355120D+00-0.845678083030D-08
   -0.135719938994D-09 0.100000000000D+01 0.189700000000D+04 0.000000000000D+00
    0.280000000000D+01 0.000000000000D+00 0.232830643654D-08 0.760000000000D+02
    0.766620000000D+05 0.400000000000D+01 0.000000000000D+00 0.000000000000D+00
25 16  5 15 22  0  0.0-0.172047875822D-03-0.704858393874D-11 0.000000000000D+00
    0.107000000000D+03-0.150000000000D+02 0.412088593715D-08-0.123707320458D+01
   -0.694766640663D-06 0.560314697213D-02 0.888854265213D-05 0.515375750732D+04
    0.792000000000D+05 0.115483999252D-06 0.215182078955D+01 0.279396772385D-07
    0.978499190785D+00 0.217968750000D+03 0.766819027719D+00-0.782354016756D-08
    0.264296723305D-10 0.000000000000D+00 0.189700000000D+04 0.000000000000D+00
    0.200000000000D+01 0.000000000000D+00 0.558793544769D-08 0.107000000000D+03
    0.720000000000D+05 0.400000000000D+01 0.000000000000D+00 0.000000000000D+00
26 16  5 15 22  0  0.0-0.365226995200D-03-0.123918653117D-10 0.000000000000D+00
    0.490000000000D+02-0.118437500000D+02 0.448875840338D-08-0.203552784601D+01
   -0.862404704094D-06 0.102440046612D-02 0.956654548645D-05 0.515376102638D+04
    0.792000000000D+05 0.242143869400D-07 0.214304789951D+01-0.391155481338D-07
    0.960470476571D+00 0.196187500000D+03 0.171455147281D+00-0.803926343902D-08
   -0.142863093678D-11 0.000000000000D+00 0.189700000000D+04 0.000000000000D+00
    0.200000000000D+01 0.000000000000D+00 0.698491930962D-08 0.490000000000D+02
    0.720000000000D+05 0.400000000000D+01 0.000000000000D+00 0.000000000000D+00
27 16  5 15 22  0  0.0 0.928742811084D-04 0.409272615798D-11 0.000000000000D+00
    0.190000000000D+02 0.245312500000D+02 0.452447417680D-08 0.268322536637D+01
    0.125542283058D-05 0.364752905443D-02 0.670552253723D-05 0.515364020729D+04
    0.792000000000D+05-0.987201929092D-07-0.309027097700D+01-0.391155481338D-07
    0.971505336400D+00 0.256562500000D+03 0.268891461529D+00-0.804426364730D-08
    0.313584490624D-09 0.000000000000D+00 0.189700000000D+04 0.000000000000D+00
    0.200000000000D+01 0.000000000000D+00 0.139698386192D-08 0.190000000000D+02
    0.738900000000D+05 0.400000000000D+01 0.000000000000D+00 0.000000000000D+00
